NORAD_CAT_ID,OBJECT_NAME,OBJECT_TYPE,EPOCH,MEAN_MOTION,ECCENTRICITY,INCLINATION,RA_OF_ASC_NODE,ARG_OF_PERICENTER,MEAN_ANOMALY,BSTAR,MEAN_MOTION_DOT,MEAN_MOTION_DDOT,TLE_LINE0,TLE_LINE1,TLE_LINE2,SEMIMAJOR_AXIS,PERIOD,APOGEE,PERIGEE,DECAYED
54005.0,STARLINK-5135,PAYLOAD,2023-04-08 00:10:11,15.08844131,0.0001114,53.2164,322.3679,90.6467,269.4652,0.00017506,2.5e-05,0.0,0 STARLINK-5135,1 54005U 22125AT  23098.00707925  .00002500  00000-0  17506-3 0  9997,2 54005  53.2164 322.3679 0001114  90.6467 269.4652 15.08844131 28434,6917.868,95.437,540.503,538.962,0.0
54005.0,STARLINK-5135,PAYLOAD,2023-04-08 17:39:26,15.08846077,0.0001201,53.2164,319.0981,81.2412,278.8716,5.9269e-05,6.56e-06,0.0,0 STARLINK-5135,1 54005U 22125AT  23098.73571935  .00000656  00000-0  59269-4 0  9990,2 54005  53.2164 319.0981 0001201  81.2412 278.8716 15.08846077 28599,6917.862,95.437,540.558,538.896,0.0
54005.0,STARLINK-5135,PAYLOAD,2023-04-08 20:50:11,15.08861363,0.0001066,53.2174,318.5041,73.2335,286.8774,0.00040443,6.158e-05,0.0,0 STARLINK-5135,1 54005U 22125AT  23098.86819238  .00006158  00000-0  40443-3 0  9991,2 54005  53.2174 318.5041 0001066  73.2335 286.8774 15.08861363 28616,6917.815,95.436,540.418,538.943,0.0
54005.0,STARLINK-5135,PAYLOAD,2023-04-09 20:40:59,15.0884051,0.0001128,53.2169,314.0417,92.7311,267.381,2.441e-05,1.01e-06,0.0,0 STARLINK-5135,1 54005U 22125AT  23099.86179925  .00000101  00000-0  24410-4 0  9993,2 54005  53.2169 314.0417 0001128  92.7311 267.3810 15.08840510 28769,6917.879,95.438,540.524,538.963,0.0
54005.0,STARLINK-5135,PAYLOAD,2023-04-10 10:59:28,15.08836246,0.0001368,53.2169,311.3661,88.768,271.3469,-1.5495e-05,-5.34e-06,0.0,0 STARLINK-5135,1 54005U 22125AT  23100.45796326 -.00000534  00000-0 -15495-4 0  9996,2 54005  53.2169 311.3661 0001368  88.7680 271.3469 15.08836246 28801,6917.892,95.438,540.703,538.81,0.0
54005.0,STARLINK-5135,PAYLOAD,2023-04-10 20:31:46,15.08845588,0.0001151,53.2165,309.5812,88.2466,271.8657,-5.2466e-05,-1.123e-05,0.0,0 STARLINK-5135,1 54005U 22125AT  23100.85539853 -.00001123  00000-0 -52466-4 0  9994,2 54005  53.2165 309.5812 0001151  88.2466 271.8657 15.08845588 28860,6917.863,95.437,540.525,538.932,0.0
54005.0,STARLINK-5135,PAYLOAD,2023-04-11 14:01:01,15.08830777,0.0001395,53.2145,306.3111,82.4113,277.7038,0.00011377,1.523e-05,0.0,0 STARLINK-5135,1 54005U 22125AT  23101.58404883  .00001523  00000-0  11377-3 0  9996,2 54005  53.2145 306.3111 0001395  82.4113 277.7038 15.08830777 28974,6917.909,95.438,540.739,538.809,0.0
54005.0,STARLINK-5135,PAYLOAD,2023-04-11 20:22:33,15.08839996,0.0001388,53.2156,305.1198,99.1473,260.9677,0.00017585,2.512e-05,0.0,0 STARLINK-5135,1 54005U 22125AT  23101.84900402  .00002512  00000-0  17585-3 0  9999,2 54005  53.2156 305.1198 0001388  99.1473 260.9677 15.08839996 29060,6917.88,95.438,540.706,538.785,0.0
54005.0,STARLINK-5135,PAYLOAD,2023-04-12 05:54:52,15.08841582,0.0001287,53.2153,303.3366,99.7727,260.3411,0.00016474,2.335e-05,0.0,0 STARLINK-5135,1 54005U 22125AT  23102.24644356  .00002335  00000-0  16474-3 0  9996,2 54005  53.2153 303.3366 0001287  99.7727 260.3411 15.08841582 29075,6917.876,95.437,540.631,538.85,0.0
54005.0,STARLINK-5135,PAYLOAD,2023-04-12 23:24:07,15.08845663,0.0001443,53.214,300.0656,100.3048,259.8107,-0.00013422,-2.424e-05,0.0,0 STARLINK-5135,1 54005U 22125AT  23102.97508409 -.00002424  00000-0 -13422-3 0  9995,2 54005  53.2140 300.0656 0001443 100.3048 259.8107 15.08845663 29233,6917.863,95.437,540.726,538.73,0.0
54005.0,STARLINK-5135,PAYLOAD,2023-04-13 05:45:39,15.08837728,9.19e-05,53.2168,298.8781,226.6523,133.4393,-5.0496e-05,-1.091e-05,0.0,0 STARLINK-5135,1 54005U 22125AT  23103.24004508 -.00001091  00000-0 -50496-4 0  9999,2 54005  53.2168 298.8781 0000919 226.6523 133.4393 15.08837728 29229,6917.887,95.438,540.388,539.117,0.0
54005.0,STARLINK-5135,PAYLOAD,2023-04-13 15:17:59,15.08836554,6.69e-05,53.216,297.091,101.9611,258.1456,2.0702e-05,4.2e-07,0.0,0 STARLINK-5135,1 54005U 22125AT  23103.63748882  .00000042  00000-0  20702-4 0  9992,2 54005  53.2160 297.0910 0000669 101.9611 258.1456 15.08836554 29334,6917.891,95.438,540.219,539.293,0.0
54005.0,STARLINK-5135,PAYLOAD,2023-04-13 20:04:08,15.08847354,0.0001302,53.2162,296.2001,103.1757,256.938,0.00016813,2.389e-05,0.0,0 STARLINK-5135,1 54005U 22125AT  23103.83620375  .00002389  00000-0  16813-3 0  9993,2 54005  53.2162 296.2001 0001302 103.1757 256.9380 15.08847354 29363,6917.858,95.437,540.624,538.822,0.0
54005.0,STARLINK-5135,PAYLOAD,2023-04-14 11:58:00,15.0882983,0.0001641,53.2188,293.2257,86.7026,273.4154,-4.0743e-05,-9.36e-06,0.0,0 STARLINK-5135,1 54005U 22125AT  23104.49861630 -.00000936  00000-0 -40743-4 0  9995,2 54005  53.2188 293.2257 0001641  86.7026 273.4154 15.08829830 29465,6917.911,95.438,540.912,538.641,0.0
54005.0,STARLINK-5135,PAYLOAD,2023-04-14 13:33:23,15.0882093,9.27e-05,53.2166,292.9275,85.942,274.1678,-0.00022375,-3.845e-05,0.0,0 STARLINK-5135,1 54005U 22125AT  23104.56485906 -.00003845  00000-0 -22375-3 0  9993,2 54005  53.2166 292.9275 0000927  85.9420 274.1678 15.08820930 29429,6917.939,95.439,540.445,539.162,0.0
54005.0,STARLINK-5135,PAYLOAD,2023-04-15 13:24:11,15.08836146,8.57e-05,53.2153,288.4671,82.9603,277.1487,0.00019316,2.787e-05,0.0,0 STARLINK-5135,1 54005U 22125AT  23105.55846205  .00002787  00000-0  19316-3 0  9999,2 54005  53.2153 288.4671 0000857  82.9603 277.1487 15.08836146 29626,6917.892,95.438,540.35,539.164,0.0
54005.0,STARLINK-5135,PAYLOAD,2023-04-15 21:21:06,15.08851531,8.16e-05,53.2159,286.9803,85.1579,274.9506,0.00046528,7.127e-05,0.0,0 STARLINK-5135,1 54005U 22125AT  23105.88965661  .00007127  00000-0  46528-3 0  9991,2 54005  53.2159 286.9803 0000816  85.1579 274.9506 15.08851531 29671,6917.845,95.437,540.275,539.146,0.0
54005.0,STARLINK-5135,PAYLOAD,2023-04-16 11:39:34,15.08848965,9.82e-05,53.2157,284.3035,91.3845,268.726,0.00048345,7.416e-05,0.0,0 STARLINK-5135,1 54005U 22125AT  23106.48581808  .00007416  00000-0  48345-3 0  9995,2 54005  53.2157 284.3035 0000982  91.3845 268.7260 15.08848965 29762,6917.853,95.437,540.397,539.039,0.0
54005.0,STARLINK-5135,PAYLOAD,2023-04-16 21:11:52,15.08864804,8.86e-05,53.2157,282.5189,96.016,264.0933,0.00058792,9.088e-05,0.0,0 STARLINK-5135,1 54005U 22125AT  23106.88324823  .00009088  00000-0  58792-3 0  9995,2 54005  53.2157 282.5189 0000886  96.0160 264.0933 15.08864804 29774,6917.805,95.436,540.282,539.057,0.0
54005.0,STARLINK-5135,PAYLOAD,2023-04-17 11:30:21,15.08846483,9.69e-05,53.2159,279.8457,64.4346,295.6746,-0.00032567,-5.468e-05,0.0,0 STARLINK-5135,1 54005U 22125AT  23107.47941016 -.00005468  00000-0 -32567-3 0  9992,2 54005  53.2159 279.8457 0000969  64.4346 295.6746 15.08846483 29865,6917.861,95.437,540.396,539.055,0.0
54005.0,STARLINK-5135,PAYLOAD,2023-04-17 21:02:39,15.08852894,0.0001136,53.2154,278.0586,88.7828,271.3295,0.00011294,1.511e-05,0.0,0 STARLINK-5135,1 54005U 22125AT  23107.87684738  .00001511  00000-0  11294-3 0  9998,2 54005  53.2154 278.0586 0001136  88.7828 271.3295 15.08852894 29925,6917.841,95.437,540.492,538.92,0.0
54005.0,STARLINK-5135,PAYLOAD,2023-04-18 11:21:08,15.08840469,9.61e-05,53.2158,275.3849,72.5074,287.6023,4.6946e-05,4.59e-06,0.0,0 STARLINK-5135,1 54005U 22125AT  23108.47301172  .00000459  00000-0  46946-4 0  9996,2 54005  53.2158 275.3849 0000961  72.5074 287.6023 15.08840469 30016,6917.879,95.438,540.409,539.079,0.0
54005.0,STARLINK-5135,PAYLOAD,2023-04-18 17:42:40,15.0884523,8.56e-05,53.2162,274.1944,83.3961,276.7128,0.00022005,3.217e-05,0.0,0 STARLINK-5135,1 54005U 22125AT  23108.73797065  .00003217  00000-0  22005-3 0  9999,2 54005  53.2162 274.1944 0000856  83.3961 276.7128 15.08845230 30052,6917.864,95.437,540.322,539.137,0.0
54005.0,STARLINK-5135,PAYLOAD,2023-04-19 11:11:55,15.08842582,0.0001148,53.2157,270.9227,91.1774,268.935,0.00028191,4.202e-05,0.0,0 STARLINK-5135,1 54005U 22125AT  23109.46661331  .00004202  00000-0  28191-3 0  9993,2 54005  53.2157 270.9227 0001148  91.1774 268.9350 15.08842582 30167,6917.872,95.437,540.532,538.943,0.0
54005.0,STARLINK-5135,PAYLOAD,2023-04-19 17:33:27,15.08848634,9.42e-05,53.2152,269.7318,91.7572,268.3528,0.00038405,5.831e-05,0.0,0 STARLINK-5135,1 54005U 22125AT  23109.73157110  .00005831  00000-0  38405-3 0  9996,2 54005  53.2152 269.7318 0000942  91.7572 268.3528 15.08848634 30202,6917.854,95.437,540.371,539.067,0.0
54005.0,STARLINK-5135,PAYLOAD,2023-04-20 11:02:42,15.08839607,0.0001761,53.2178,266.4615,103.9424,256.1764,6.3523e-05,7.23e-06,0.0,0 STARLINK-5135,1 54005U 22125AT  23110.46021493  .00000723  00000-0  63523-4 0  9997,2 54005  53.2178 266.4615 0001761 103.9424 256.1764 15.08839607 30315,6917.882,95.438,540.965,538.528,0.0
54005.0,STARLINK-5135,PAYLOAD,2023-04-20 17:24:15,15.08839412,0.0001567,53.2168,265.2722,91.3322,268.7849,7.5072e-05,9.07e-06,0.0,0 STARLINK-5135,1 54005U 22125AT  23110.72517534  .00000907  00000-0  75072-4 0  9998,2 54005  53.2168 265.2722 0001567  91.3322 268.7849 15.08839412 30408,6917.882,95.438,540.831,538.663,0.0
54005.0,STARLINK-5135,PAYLOAD,2023-04-21 02:56:33,15.08841618,0.000109,53.2166,263.4879,85.9749,274.1368,0.00021108,3.073e-05,0.0,0 STARLINK-5135,1 54005U 22125AT  23111.12261415  .00003073  00000-0  21108-3 0  9994,2 54005  53.2166 263.4879 0001090  85.9749 274.1368 15.08841618 30411,6917.875,95.437,540.494,538.986,0.0
54005.0,STARLINK-5135,PAYLOAD,2023-04-21 18:50:25,15.08846967,0.0001114,53.218,260.5156,87.3487,272.7632,0.0003154,4.736e-05,0.0,0 STARLINK-5135,1 54005U 22125AT  23111.78501410  .00004736  00000-0  31540-3 0  9996,2 54005  53.2180 260.5156 0001114  87.3487 272.7632 15.08846967 30516,6917.859,95.437,540.495,538.953,0.0
54005.0,STARLINK-5135,PAYLOAD,2023-04-22 17:05:49,15.08845485,0.00011,53.2171,256.3522,86.2381,273.8737,0.00025639,3.796e-05,0.0,0 STARLINK-5135,1 54005U 22125AT  23112.71237293  .00003796  00000-0  25639-3 0  9992,2 54005  53.2171 256.3522 0001100  86.2381 273.8737 15.08845485 30705,6917.864,95.437,540.49,538.968,0.0
